0 TITAN 3C TRANSTAGE DEB
1 33513U 68081P   13282.51764827 -.00000270  00000-0  10000-3 0  4487
2 33513 007.7196 321.3527 0089144 291.0882 067.8698 01.01395562 22264
0 TITAN 3C TRANSTAGE DEB
1 33513U 68081P   13288.43492470 -.00000122  00000-0  10000-3 0  4493
2 33513 007.7129 321.3187 0089325 291.7645 067.1575 01.01392144 22324
0 TITAN 3C TRANSTAGE DEB
1 33513U 68081P   13288.43498308 -.00000122  00000-0  10000-3 0  4501
2 33513 007.7129 321.3187 0089325 291.7645 067.1788 01.01392144 22320
0 TITAN 3C TRANSTAGE DEB
1 33513U 68081P   13295.33868566  .00000049  00000-0  10000-3 0  4513
2 33513 007.7048 321.2774 0089402 291.9146 067.0199 01.01391022 22391
